IRIDIUM 155             
1 43573U 18061E   20058.93602876  .00000068  00000-0  17320-4 0  9995
2 43573  86.3944 298.4070 0001779  70.0043 290.1344 14.34216352 83528
IRIDIUM 154             
1 43574U 18061F   20058.91701737  .00000071  00000-0  18222-4 0  9996
2 43574  86.3958 298.4399 0002344  88.8513 271.2951 14.34217069 83560
IRIDIUM 163             
1 43575U 18061G   20059.38636505  .00000068  00000-0  17235-4 0  9998
2 43575  86.3954 298.2289 0001983 105.4285 254.7130 14.34216855 83605
IRIDIUM 156             
1 43576U 18061H   20058.59354076  .00000065  00000-0  16127-4 0  9997
2 43576  86.3958 298.5650 0001689  90.5053 269.6336 14.34216410 83481
IRIDIUM 164             
1 43577U 18061J   20059.41173370  .00000075  00000-0  19592-4 0  9996
2 43577  86.3956 298.2282 0002273  91.0725 269.0731 14.34216072 83645
IRIDIUM 159             
1 43578U 18061K   20058.89162223  .00000076  00000-0  20151-4 0  9997
2 43578  86.3955 298.4307 0002223  88.7773 271.3677 14.34217531 83530
IRIDIUM 180             
1 43922U 19002A   20058.82135360  .00000006  00000-0 -49777-5 0  9991
2 43922  86.3958 235.2701 0003054 103.3076 256.8460 14.34217557 59175
IRIDIUM 176             
1 43923U 19002B   20058.90831865  .00000031  00000-0  97780-6 0  9999
2 43923  86.6092 235.2539 0002365  96.1183 264.0303 14.72252836 60663
IRIDIUM 168             
1 43924U 19002C   20058.81501804  .00000013  00000-0 -25512-5 0  9991
2 43924  86.3960 235.2848 0002341  90.5435 269.6029 14.34217726 59111
IRIDIUM 173             
1 43925U 19002D   20058.73256333  .00000004  00000-0 -55038-5 0  9993
2 43925  86.3957 235.3017 0002187  91.0249 269.1198 14.34217503 59096
IRIDIUM 169             
1 43926U 19002E   20058.86044422 -.00000003  00000-0 -75172-5 0  9993
2 43926  86.4193 266.8372 0005581  16.0198 344.1176 14.38609356 59369
IRIDIUM 172             
1 43927U 19002F   20058.86576845  .00000006  00000-0 -48300-5 0  9998
2 43927  86.3957 235.2469 0002307  93.0787 267.0672 14.34217638 59117
IRIDIUM 175             
1 43928U 19002G   20059.44598521  .00000028  00000-0  60648-6 0  9992
2 43928  86.6077 234.9429 0001457  80.3645 279.7737 14.72249497 60735
IRIDIUM 171             
1 43929U 19002H   20059.47463813 -.00000004  00000-0 -86470-5 0  9997
2 43929  86.3967 235.0430 0002327  89.6652 270.4810 14.34217322 59190
IRIDIUM 170             
1 43930U 19002J   20058.91458788  .00000023  00000-0 -28277-6 0  9994
2 43930  86.6092 235.2585 0002055  97.3807 262.7643 14.72250857 60678
IRIDIUM 167             
1 43931U 19002K   20058.84039209  .00000010  00000-0 -36302-5 0  9993
2 43931  86.3958 235.2595 0002952  99.7614 260.3915 14.34216682 59104
